start=new Date('2023-04-15T00:00:00.000Z').valueOf();
sats=[{"PERIAPSIS":"539.190","ELEMENT_SET_NO":"999","MEAN_ELEMENT_THEORY":"SGP4","RCS_SIZE":"LARGE","MEAN_MOTION_DDOT":"0.0000000000000","EPHEMERIS_TYPE":"0","EPOCH":"2023-04-14T14:58:09.845184","NORAD_CAT_ID":"53715","GP_ID":"230062433","TLE_LINE2":"2 53715  53.2164 332.6601 0000798 103.6143 256.4938 15.08841009 33927","CENTER_NAME":"EARTH","MEAN_MOTION":"15.08841009","OBJECT_TYPE":"PAYLOAD","REV_AT_EPOCH":"3392","DECAY_DATE":null,"FILE":"3887351","RA_OF_ASC_NODE":"332.6601","TLE_LINE1":"1 53715U 22107R   23104.62372506  .00001522  00000-0  11369-3 0  9997","ECCENTRICITY":"0.00007980","PERIOD":"95.437","APOAPSIS":"540.294","OBJECT_NAME":"STARLINK-4686","SEMIMAJOR_AXIS":"6917.877","ARG_OF_PERICENTER":"103.6143","CLASSIFICATION_TYPE":"U","MEAN_ANOMALY":"256.4938","COUNTRY_CODE":"US","SITE":"AFETR","INCLINATION":"53.2164","LAUNCH_DATE":"2022-09-05","MEAN_MOTION_DOT":"0.00001522","BSTAR":"0.00011369000000","TIME_SYSTEM":"UTC","REF_FRAME":"TEME","OBJECT_ID":"2022-107R"},{"TIME_SYSTEM":"UTC","REF_FRAME":"TEME","OBJECT_ID":"2022-107S","LAUNCH_DATE":"2022-09-05","BSTAR":"0.00004890800000","MEAN_MOTION_DOT":"0.00000491","COUNTRY_CODE":"US","MEAN_ANOMALY":"264.2499","CLASSIFICATION_TYPE":"U","INCLINATION":"53.2170","SITE":"AFETR","ECCENTRICITY":"0.00011460","RA_OF_ASC_NODE":"332.6364","TLE_LINE1":"1 53716U 22107S   23104.62004599  .00000491  00000-0  48908-4 0  9996","OBJECT_NAME":"STARLINK-4699","SEMIMAJOR_AXIS":"6917.886","ARG_OF_PERICENTER":"95.8624","PERIOD":"95.438","APOAPSIS":"540.544","REV_AT_EPOCH":"3392","MEAN_MOTION":"15.08838171","OBJECT_TYPE":"PAYLOAD","DECAY_DATE":null,"FILE":"3887351","GP_ID":"230062431","CENTER_NAME":"EARTH","TLE_LINE2":"2 53716  53.2170 332.6364 0001146  95.8624 264.2499 15.08838171 33920","MEAN_MOTION_DDOT":"0.0000000000000","EPOCH":"2023-04-14T14:52:51.973536","NORAD_CAT_ID":"53716","EPHEMERIS_TYPE":"0","PERIAPSIS":"538.958","ELEMENT_SET_NO":"999","MEAN_ELEMENT_THEORY":"SGP4","RCS_SIZE":"LARGE"},{"TLE_LINE2":"2 53718  53.2166 332.3184 0001383  89.4496 270.6655 15.08842451 33935","CENTER_NAME":"EARTH","GP_ID":"230062479","DECAY_DATE":null,"FILE":"3887351","MEAN_MOTION":"15.08842451","OBJECT_TYPE":"PAYLOAD","REV_AT_EPOCH":"3393","MEAN_ELEMENT_THEORY":"SGP4","RCS_SIZE":"LARGE","PERIAPSIS":"538.781","ELEMENT_SET_NO":"999","EPHEMERIS_TYPE":"0","NORAD_CAT_ID":"53718","EPOCH":"2023-04-14T16:22:56.399808","MEAN_MOTION_DDOT":"0.0000000000000","BSTAR":"0.00010924000000","MEAN_MOTION_DOT":"0.00001451","LAUNCH_DATE":"2022-09-05","REF_FRAME":"TEME","OBJECT_ID":"2022-107U","TIME_SYSTEM":"UTC","PERIOD":"95.437","APOAPSIS":"540.695","OBJECT_NAME":"STARLINK-4695","SEMIMAJOR_AXIS":"6917.873","ARG_OF_PERICENTER":"89.4496","RA_OF_ASC_NODE":"332.3184","TLE_LINE1":"1 53718U 22107U   23104.68259722  .00001451  00000-0  10924-3 0  9997","ECCENTRICITY":"0.00013830","SITE":"AFETR","INCLINATION":"53.2166","MEAN_ANOMALY":"270.6655","CLASSIFICATION_TYPE":"U","COUNTRY_CODE":"US"},{"OBJECT_ID":"2022-107V","REF_FRAME":"TEME","TIME_SYSTEM":"UTC","MEAN_MOTION_DOT":"0.00011424","BSTAR":"0.00075092000000","LAUNCH_DATE":"2022-09-05","INCLINATION":"53.2160","SITE":"AFETR","COUNTRY_CODE":"US","CLASSIFICATION_TYPE":"U","MEAN_ANOMALY":"285.8082","ARG_OF_PERICENTER":"74.3121","OBJECT_NAME":"STARLINK-4644","SEMIMAJOR_AXIS":"6920.346","PERIOD":"95.489","APOAPSIS":"543.535","ECCENTRICITY":"0.00019140","TLE_LINE1":"1 53719U 22107V   23104.55219323  .00011424  00000-0  75092-3 0  9995","RA_OF_ASC_NODE":"302.9515","FILE":"3887351","DECAY_DATE":null,"REV_AT_EPOCH":"3432","MEAN_MOTION":"15.08033790","OBJECT_TYPE":"PAYLOAD","CENTER_NAME":"EARTH","TLE_LINE2":"2 53719  53.2160 302.9515 0001914  74.3121 285.8082 15.08033790 34323","GP_ID":"230062429","NORAD_CAT_ID":"53719","EPOCH":"2023-04-14T13:15:09.495072","EPHEMERIS_TYPE":"0","MEAN_MOTION_DDOT":"0.0000000000000","RCS_SIZE":"LARGE","MEAN_ELEMENT_THEORY":"SGP4","ELEMENT_SET_NO":"999","PERIAPSIS":"540.886"},{"TLE_LINE2":"2 53720  53.2170 335.3619 0001191  85.4418 274.6710 15.08826548 34291","CENTER_NAME":"EARTH","GP_ID":"230060127","DECAY_DATE":null,"FILE":"3887333","OBJECT_TYPE":"PAYLOAD","MEAN_MOTION":"15.08826548","REV_AT_EPOCH":"3429","MEAN_ELEMENT_THEORY":"SGP4","RCS_SIZE":"LARGE","PERIAPSIS":"538.963","ELEMENT_SET_NO":"999","EPHEMERIS_TYPE":"0","NORAD_CAT_ID":"53720","EPOCH":"2023-04-14T00:45:00.595296","MEAN_MOTION_DDOT":"0.0000000000000","MEAN_MOTION_DOT":"-0.00001398","BSTAR":"-0.00006979600000","LAUNCH_DATE":"2022-09-05","REF_FRAME":"TEME","OBJECT_ID":"2022-107W","TIME_SYSTEM":"UTC","APOAPSIS":"540.610","PERIOD":"95.438","OBJECT_NAME":"STARLINK-4642","SEMIMAJOR_AXIS":"6917.922","ARG_OF_PERICENTER":"85.4418","RA_OF_ASC_NODE":"335.3619","TLE_LINE1":"1 53720U 22107W   23104.03125689 -.00001398  00000-0 -69796-4 0  9997","ECCENTRICITY":"0.00011910","SITE":"AFETR","INCLINATION":"53.2170","CLASSIFICATION_TYPE":"U","MEAN_ANOMALY":"274.6710","COUNTRY_CODE":"US"},{"DECAY_DATE":null,"FILE":"3887333","OBJECT_TYPE":"PAYLOAD","MEAN_MOTION":"15.08844494","REV_AT_EPOCH":"3429","TLE_LINE2":"2 53721  53.2171 335.4062 0001184  81.1596 278.9530 15.08844494 34295","CENTER_NAME":"EARTH","GP_ID":"230061379","EPHEMERIS_TYPE":"0","EPOCH":"2023-04-14T00:55:36.858720","NORAD_CAT_ID":"53721","MEAN_MOTION_DDOT":"0.0000000000000","MEAN_ELEMENT_THEORY":"SGP4","RCS_SIZE":"LARGE","PERIAPSIS":"538.913","ELEMENT_SET_NO":"999","REF_FRAME":"TEME","OBJECT_ID":"2022-107X","TIME_SYSTEM":"UTC","BSTAR":"0.00014668000000","MEAN_MOTION_DOT":"0.00002048","LAUNCH_DATE":"2022-09-05","SITE":"AFETR","INCLINATION":"53.2171","CLASSIFICATION_TYPE":"U","MEAN_ANOMALY":"278.9530","COUNTRY_CODE":"US","PERIOD":"95.437","APOAPSIS":"540.551","OBJECT_NAME":"STARLINK-4707","SEMIMAJOR_AXIS":"6917.867","ARG_OF_PERICENTER":"81.1596","RA_OF_ASC_NODE":"335.4062","TLE_LINE1":"1 53721U 22107X   23104.03862105  .00002048  00000-0  14668-3 0  9997","ECCENTRICITY":"0.00011840"},{"DECAY_DATE":null,"FILE":"3887545","REV_AT_EPOCH":"3396","OBJECT_TYPE":"PAYLOAD","MEAN_MOTION":"15.08843801","CENTER_NAME":"EARTH","TLE_LINE2":"2 53722  53.2164 331.5839 0000889  89.5670 270.5424 15.08843801 33967","GP_ID":"230066732","NORAD_CAT_ID":"53722","EPOCH":"2023-04-14T21:46:14.141568","EPHEMERIS_TYPE":"0","MEAN_MOTION_DDOT":"0.0000000000000","MEAN_ELEMENT_THEORY":"SGP4","RCS_SIZE":"LARGE","PERIAPSIS":"539.119","ELEMENT_SET_NO":"999","REF_FRAME":"TEME","OBJECT_ID":"2022-107Y","TIME_SYSTEM":"UTC","BSTAR":"0.00004939700000","MEAN_MOTION_DOT":"0.00000499","LAUNCH_DATE":"2022-09-05","INCLINATION":"53.2164","SITE":"AFETR","COUNTRY_CODE":"US","CLASSIFICATION_TYPE":"U","MEAN_ANOMALY":"270.5424","OBJECT_NAME":"STARLINK-4700","SEMIMAJOR_AXIS":"6917.869","ARG_OF_PERICENTER":"89.5670","APOAPSIS":"540.349","PERIOD":"95.437","ECCENTRICITY":"0.00008890","RA_OF_ASC_NODE":"331.5839","TLE_LINE1":"1 53722U 22107Y   23104.90710812  .00000499  00000-0  49397-4 0  9997"},{"REV_AT_EPOCH":"3396","OBJECT_TYPE":"PAYLOAD","MEAN_MOTION":"15.08840676","FILE":"3887545","DECAY_DATE":null,"GP_ID":"230066637","CENTER_NAME":"EARTH","TLE_LINE2":"2 53723  53.2171 331.5889 0001138  84.6039 275.5082 15.08840676 33966","MEAN_MOTION_DDOT":"0.0000000000000","NORAD_CAT_ID":"53723","EPOCH":"2023-04-14T21:47:37.124448","EPHEMERIS_TYPE":"0","ELEMENT_SET_NO":"999","PERIAPSIS":"538.956","RCS_SIZE":"LARGE","MEAN_ELEMENT_THEORY":"SGP4","TIME_SYSTEM":"UTC","OBJECT_ID":"2022-107Z","REF_FRAME":"TEME","LAUNCH_DATE":"2022-09-05","BSTAR":"0.00009114500000","MEAN_MOTION_DOT":"0.00001163","COUNTRY_CODE":"US","MEAN_ANOMALY":"275.5082","CLASSIFICATION_TYPE":"U","INCLINATION":"53.2171","SITE":"AFETR","ECCENTRICITY":"0.00011380","TLE_LINE1":"1 53723U 22107Z   23104.90806857  .00001163  00000-0  91145-4 0  9990","RA_OF_ASC_NODE":"331.5889","ARG_OF_PERICENTER":"84.6039","SEMIMAJOR_AXIS":"6917.878","OBJECT_NAME":"STARLINK-4705","APOAPSIS":"540.531","PERIOD":"95.438"},{"COUNTRY_CODE":"US","MEAN_ANOMALY":"280.0992","CLASSIFICATION_TYPE":"U","INCLINATION":"53.2167","SITE":"AFETR","ECCENTRICITY":"0.00009580","RA_OF_ASC_NODE":"331.5216","TLE_LINE1":"1 53724U 22107AA  23104.89604981  .00005532  00000-0  36531-3 0  9994","OBJECT_NAME":"STARLINK-4663","SEMIMAJOR_AXIS":"6917.850","ARG_OF_PERICENTER":"80.0109","PERIOD":"95.437","APOAPSIS":"540.377","TIME_SYSTEM":"UTC","REF_FRAME":"TEME","OBJECT_ID":"2022-107AA","LAUNCH_DATE":"2022-09-05","MEAN_MOTION_DOT":"0.00005532","BSTAR":"0.00036531000000","MEAN_MOTION_DDOT":"0.0000000000000","NORAD_CAT_ID":"53724","EPOCH":"2023-04-14T21:30:18.703584","EPHEMERIS_TYPE":"0","PERIAPSIS":"539.052","ELEMENT_SET_NO":"999","MEAN_ELEMENT_THEORY":"SGP4","RCS_SIZE":"LARGE","REV_AT_EPOCH":"3396","MEAN_MOTION":"15.08850081","OBJECT_TYPE":"PAYLOAD","DECAY_DATE":null,"FILE":"3887545","GP_ID":"230066733","CENTER_NAME":"EARTH","TLE_LINE2":"2 53724  53.2167 331.5216 0000958  80.0109 280.0992 15.08850081 33965"},{"RA_OF_ASC_NODE":"332.7553","TLE_LINE1":"1 53726U 22107AC  23104.63846974 -.00000654  00000-0 -23015-4 0  9994","ECCENTRICITY":"0.00011270","PERIOD":"95.438","APOAPSIS":"540.525","SEMIMAJOR_AXIS":"6917.881","OBJECT_NAME":"STARLINK-4697","ARG_OF_PERICENTER":"78.1348","MEAN_ANOMALY":"281.9770","CLASSIFICATION_TYPE":"U","COUNTRY_CODE":"US","SITE":"AFETR","INCLINATION":"53.2165","LAUNCH_DATE":"2022-09-05","BSTAR":"-0.00002301500000","MEAN_MOTION_DOT":"-0.00000654","TIME_SYSTEM":"UTC","REF_FRAME":"TEME","OBJECT_ID":"2022-107AC","PERIAPSIS":"538.966","ELEMENT_SET_NO":"999","MEAN_ELEMENT_THEORY":"SGP4","RCS_SIZE":"LARGE","MEAN_MOTION_DDOT":"0.0000000000000","EPHEMERIS_TYPE":"0","NORAD_CAT_ID":"53726","EPOCH":"2023-04-14T15:19:23.785536","GP_ID":"230062452","TLE_LINE2":"2 53726  53.2165 332.7553 0001127  78.1348 281.9770 15.08839862 33928","CENTER_NAME":"EARTH","OBJECT_TYPE":"PAYLOAD","MEAN_MOTION":"15.08839862","REV_AT_EPOCH":"3392","DECAY_DATE":null,"FILE":"3887353"}];
